{"fetched_at":"2026-05-18T03:29:24Z","count":17895,"tles":[{"name":"FLOCK 4Y-33","line1":"1 55042U 23001AK  23361.67835046  .00013892  00000+0  59596-3 0  9995","line2":"2 55042  97.4515  59.5352 0012018  54.9200 305.3162 15.22775672 54485","category":"Other"},{"name":"CZ-2D R/B","line1":"1 68141U 26048C   26101.56117486  .00001216  00000+0  10992-3 0  9991","line2":"2 68141  35.1299 306.5072 0016420 251.7638 108.1283 14.95617030  4428","category":"Other"},{"name":"FENGYUN 1C DEB","line1":"1 37021U 99025EDD 26103.31629310  .00001150  00000+0  37084-3 0  9996","line2":"2 37021  98.3797 121.0854 0173552 250.5588 120.1905 14.32938479717952","category":"Weather"},{"name":"STARLINK-3797","line1":"1 52337U 22045G   26137.60712515 -.00001597  00000+0 -82252-4 0  9995","line2":"2 52337  53.2153 259.7400 0001413  86.7374 273.3779 15.08836203226040","category":"Starlink"},{"name":"STARLINK-32124","line1":"1 60298U 24132W   26137.15913046 -.00000996  00000+0 -20333-4 0  9995","line2":"2 60298  53.1613  94.3765 0001398  88.6553 271.4609 15.31698141102041","category":"Starlink"},{"name":"STARLINK-35405","line1":"1 66440U 25259U   26137.29525671  .00014552  00000+0  53718-3 0  9992","line2":"2 66440  42.9969 246.8956 0000324 194.7462 165.3380 15.27585949 29982","category":"Starlink"},{"name":"FENGYUN 1C DEB","line1":"1 30319U 99025AAG 23178.59749413  .00013588  00000+0  42109-2 0  9996","line2":"2 30319  98.3058 206.6505 0069972   4.9469 154.8170 14.39845468849447","category":"Weather"},{"name":"STARLINK-1707","line1":"1 46359U 20062AL  26137.58335648  .00010528  00000+0  60185-4 0  9997","line2":"2 46359  53.0204 292.7360 0002890 298.8243 146.3289 15.79585963  5676","category":"Starlink"},{"name":"STARLINK-5038","line1":"1 56472U 23064AA  26137.48936500 -.00008979  00000+0 -74508-3 0  9994","line2":"2 56472  69.9988 311.0371 0002828 268.0308  92.0527 14.98360498166042","category":"Starlink"},{"name":"STARLINK-33632","line1":"1 63577U 25076J   26137.12660096  .00012094  00000+0  44819-3 0  9991","line2":"2 63577  42.9976 295.4818 0000978 274.3858  85.6882 15.27586751 62298","category":"Starlink"},{"name":"STARLINK-6150","line1":"1 76150C 23090U   23185.64145833 -.00982468  00000-0 -60174-2 0  1852","line2":"2 76150  43.0001 215.1318 0001263 267.9986 325.1832 15.77326261    14","category":"Starlink"},{"name":"STARLINK-30790","line1":"1 58127U 23162K   26137.61357318  .00015763  00000+0  77539-3 0  9995","line2":"2 58127  42.9976 105.3702 0014445 127.2809 232.9359 15.17710874142828","category":"Starlink"},{"name":"STARLINK-34355","line1":"1 64306U 25123R   26137.65099202  .00000895  00000+0  82786-4 0  9990","line2":"2 64306  70.0026  20.7639 0002766 270.4923  89.5919 14.98332438 51946","category":"Starlink"},{"name":"GEESAT-3 10","line1":"1 61020U 24159K   26137.59454915  .00000955  00000+0  14011-3 0  9999","line2":"2 61020  49.9994 225.1110 0003844 347.3555  12.7286 14.84115396 91961","category":"Other"},{"name":"KUIPER-00232","line1":"1 67148U 25301R   26137.33670153  .00001476  00000+0  22255-3 0  9990","line2":"2 67148  51.8986 122.0936 0001407  73.3172 286.7945 14.79954961 23891","category":"Other"},{"name":"STARLINK-31247","line1":"1 59206U 24046F   26137.57020729  .00000014  00000+0  12605-4 0  9991","line2":"2 59206  53.1587 195.5214 0001062  79.8607 280.2513 15.30190180123595","category":"Starlink"},{"name":"STARLINK-34970","line1":"1 65450U 25194S   26137.54208769  .00001315  00000+0  95223-4 0  9995","line2":"2 65450  97.4804 351.9521 0002807  64.8623 295.2895 15.05656286 40004","category":"Starlink"},{"name":"STARLINK-11507 [DTC]","line1":"1 62519U 25004J   26137.08281339  .00163758  00000+0  12566-2 0  9998","line2":"2 62519  42.9993  18.5984 0001649 253.1796 106.8891 15.70804134 77964","category":"Starlink"},{"name":"KZ-11 R/B","line1":"1 68205U 26052H   26105.62931571  .00010239  19848-5  15991-3 0  9992","line2":"2 68205  97.3391 179.2262 0541948 274.0615  79.8848 14.68049184  4474","category":"Other"},{"name":"STARLINK-32230","line1":"1 60366U 24138M   26137.32626884 -.00022809  00000+0 -75791-3 0  9991","line2":"2 60366  53.1617 350.9742 0000916 125.1761 234.9326 15.30302604101134","category":"Starlink"},{"name":"STARLINK-34767","line1":"1 66507U 25263Y   26136.93706478  .00021903  00000+0  80249-3 0  9994","line2":"2 66507  43.0013 325.5188 0001617 275.9193  84.1474 15.27604479 29330","category":"Starlink"},{"name":"STARLINK-11664 [DTC]","line1":"1 63666U 25085C   26137.61115338  .00797203  30437-3  14107-2 0  9997","line2":"2 63666  42.9911 216.4539 0012630  34.4792 325.6903 16.00948418 61169","category":"Starlink"},{"name":"STARLINK-6306","line1":"1 76306C 23094AA  23189.75118056  .00512655  00000-0  73694-3 0  1893","line2":"2 76306  42.9958 313.6281 0077047 152.3648 320.7836 15.98166066    17","category":"Starlink"},{"name":"STARLINK-30785","line1":"1 58191U 23167S   26137.34623964 -.00001580  00000+0 -47940-4 0  9992","line2":"2 58191  43.0026 115.7942 0001003 269.0791  90.9945 15.27557976141486","category":"Starlink"},{"name":"STARLINK-11732 [DTC]","line1":"1 64370U 25127A   26137.11764923  .00177357  00000+0  13569-2 0  9994","line2":"2 64370  43.0025  32.1379 0002927 279.6042  80.4495 15.70829147 54262","category":"Starlink"},{"name":"STARLINK-11307 [DTC]","line1":"1 61210U 24171L   26137.57869860 -.00004351  00000+0 -31116-4 0  9993","line2":"2 61210  53.1592 197.0171 0001094  73.9086 286.2052 15.69675769 95213","category":"Starlink"},{"name":"STARLINK-36213","line1":"1 67212U 25304W   26137.62971484  .00001329  00000+0  11917-3 0  9998","line2":"2 67212  70.0008   0.5350 0002301 269.4896  90.6000 14.98332206 24210","category":"Starlink"},{"name":"STARLINK-31630","line1":"1 59271U 24050T   26137.60652681  .00000094  00000+0  15301-4 0  9994","line2":"2 59271  53.1591 207.8330 0001011  79.6728 280.4387 15.30191787121283","category":"Starlink"},{"name":"STARLINK-35026","line1":"1 65514U 25198Y   26137.19606952  .00000864  00000+0  41354-4 0  9991","line2":"2 65514  53.1594 313.1473 0003327  81.5465 278.5913 15.30186393 39103","category":"Starlink"},{"name":"STARLINK-32742","line1":"1 62605U 25008U   26137.38449148 -.00000211  00000+0  18670-5 0  9995","line2":"2 62605  43.0009 249.6849 0001715 261.8317  98.2340 15.27577344 76128","category":"Starlink"},{"name":"STARLINK-36962","line1":"1 68269U 26055H   26137.31967466  .00007718  00000+0  23943-3 0  9996","line2":"2 68269  53.1587 359.3912 0001707  86.9803 273.1395 15.34384820 10451","category":"Starlink"},{"name":"STARLINK-32196","line1":"1 60430U 24144F   26137.31165524 -.00002053  00000+0 -49666-4 0  9990","line2":"2 60430  53.1619 257.8132 0001836  86.2103 273.9109 15.34374449 99829","category":"Starlink"},{"name":"STARLINK-35650","line1":"1 66573U 25268S   26137.52086191  .00007329  00000+0  27555-3 0  9998","line2":"2 66573  42.9978 318.5994 0000618 220.8151 139.2654 15.27582560 28484","category":"Starlink"},{"name":"KUIPER-00014","line1":"1 63730U 25088G   26137.49361187  .00001085  00000+0  17123-3 0  9990","line2":"2 63730  51.9010 163.7985 0000147 133.4523 226.6451 14.79932342 57573","category":"Other"},{"name":"UNKNOWN","line1":"1 81552U          26098.20454357  .00000768  00000+0  17189-2 0  9994","line2":"2 81552  99.0710  13.8861 0257810  98.3934 264.6497 13.18377758594595","category":"Other"},{"name":"DRAGON CRS-29","line1":"1 58255U 23173A   23356.71741868  .00206347  25634-4  45621-3 0  9999","line2":"2 58255  51.6411 114.5130 0125974 156.4875 290.1287 15.84891964  6622","category":"Other"},{"name":"STARLINK-34472","line1":"1 64434U 25129Y   26137.50354786  .00000562  00000+0  54860-4 0  9996","line2":"2 64434  70.0017 260.9963 0002776 272.2434  87.8407 14.98336446 51591","category":"Starlink"},{"name":"SJ-19 DEB","line1":"1 61506U 24177D   24301.53620196  .00142658  00000+0  71134-3 0  9995","line2":"2 61506  41.6014 331.9207 0011516 148.4480 211.7060 15.80557873  2529","category":"Other"},{"name":"EUTELSAT 36D","line1":"1 59346U 24059A   26137.46303968  .00000000  00000+0  00000+0 0  9993","line2":"2 59346   0.0166 312.7943 0000522 284.2893 200.6484  1.00278110  7838","category":"Other"},{"name":"PRAETORIAN SDA_615","line1":"1 65578U 25203P   26137.44159010  .00000132  00000+0  10767-3 0  9995","line2":"2 65578  81.3047  39.0453 0008113 277.4392  82.5843 13.84431764 34454","category":"Other"},{"name":"JAY-D1","line1":"1 62669U 25009BN  26137.55086838 -.00003997  00000+0 -17164-3 0  9998","line2":"2 62669  97.4038 217.3841 0006780  90.8166 269.3847 15.22103256131718","category":"Other"},{"name":"STARLINK-37180","line1":"1 68333U 26059N   26137.23477539  .00034744  00000+0  63021-3 0  9990","line2":"2 68333  53.1587  27.5227 0001201  77.7051 282.4092 15.49298630  8709","category":"Starlink"},{"name":"FLOCK 4Q-15","line1":"1 58319U 23174BR  26064.15821971  .00134441  00000+0  17002-2 0  9993","line2":"2 58319  97.3914 154.8588 0004921 164.2652 195.8758 15.59054738129767","category":"Other"},{"name":"KUIPER-00039","line1":"1 64500U 25134A   26137.57829725  .00002410  00000+0  34503-3 0  9998","line2":"2 64500  51.9009 288.4761 0000590 126.0888 234.0129 14.79939432 50270","category":"Other"},{"name":"CZ-6A R/B","line1":"1 61570U 24185U   24317.57464901  .00000997  00000+0  23144-3 0  9993","line2":"2 61570  89.0273 123.0470 0100174  24.5782 336.0151 14.51160831 13854","category":"Other"},{"name":"STARLINK-36453","line1":"1 67341U 26003H   26137.53576389  .00003449  00000+0  13484-3 0  9999","line2":"2 67341  43.0001 198.2078 0001479 270.6886  89.3796 15.27575230 19351","category":"Starlink"},{"name":"STARLINK-32329","line1":"1 62736U 25014B   26137.24995196  .00022798  00000+0  83448-3 0  9997","line2":"2 62736  42.9996 127.1182 0001145 256.6193 103.4531 15.27617306 73746","category":"Starlink"},{"name":"STARLINK-34040","line1":"1 63839U 25093D   26137.47996358  .00008573  00000+0  32084-3 0  9990","line2":"2 63839  43.0049  49.3418 0001535 291.1887  68.8801 15.27565323 58496","category":"Starlink"}]}